[{"OBJECT_NAME":"STARLINK-35049","OBJECT_ID":"2025-194L","EPOCH":"2026-03-09T12:44:06.889056","MEAN_MOTION":15.05663466,"ECCENTRICITY":0.0002185,"INCLINATION":97.6019,"RA_OF_ASC_NODE":284.2328,"ARG_OF_PERICENTER":82.4381,"MEAN_ANOMALY":277.7094,"EPHEMERIS_TYPE":0,"CLASSIFICATION_TYPE":"U","NORAD_CAT_ID":65444,"ELEMENT_SET_NO":999,"REV_AT_EPOCH":2962,"BSTAR":0.00012815303,"MEAN_MOTION_DOT":1.789e-5,"MEAN_MOTION_DDOT":0},{"OBJECT_NAME":"CZ-2C DEB","OBJECT_ID":"2014-059D","EPOCH":"2026-03-09T22:58:58.836288","MEAN_MOTION":14.93158478,"ECCENTRICITY":0.00543695,"INCLINATION":97.8294,"RA_OF_ASC_NODE":330.422,"ARG_OF_PERICENTER":95.2459,"MEAN_ANOMALY":265.4968,"EPHEMERIS_TYPE":0,"CLASSIFICATION_TYPE":"U","NORAD_CAT_ID":40264,"ELEMENT_SET_NO":999,"REV_AT_EPOCH":60833,"BSTAR":0.0017870547,"MEAN_MOTION_DOT":0.00019177,"MEAN_MOTION_DDOT":0}]
